SENTINEL-6              
1 46984U 20086A   23239.72921865 -.00000047  00000+0  62816-4 0  9994
2 46984  66.0403 102.8639 0007871 268.4398  91.5715 12.80929272129242
